ORBCOMM FM33 [-]        
1 25983U 99065D   24039.38197314  .00001950  00000+0  69519-3 0  9997
2 25983  45.0279 186.1846 0008402 101.2107 280.7434 14.37271622264810
ORBCOMM FM36 [-]        
1 25984U 99065E   24039.97678746  .00001691  00000+0  63561-3 0  9999
2 25984  45.0394 267.2967 0003649 342.9572  17.1153 14.35150908263946
ORBCOMM FM35 [+]        
1 25985U 99065F   24039.71582757  .00001454  00000+0  55725-3 0  9998
2 25985  45.0395 270.9071 0003371  76.2770 283.8453 14.34794747263718
ORBCOMM FM34 [-]        
1 25986U 99065G   24039.75338185  .00001537  00000+0  58676-3 0  9997
2 25986  45.0390 271.2415 0004102  25.3044 334.8004 14.34751651263831
ORBCOMM FM38 [-]        
1 33060U 08031A   24039.50597104  .00003464  00000+0  51643-3 0  9991
2 33060  48.4408 144.3729 0004572  80.6724 279.4706 14.76892710841527
ORBCOMM FM41 [-]        
1 33061U 08031B   24039.55312047  .00003582  00000+0  53619-3 0  9994
2 33061  48.4437 150.5581 0003784  63.6645  32.6359 14.76632236841036
ORBCOMM FM29 [-]        
1 33062U 08031C   24039.39089194  .00003789  00000+0  56660-3 0  9999
2 33062  48.4393 159.3475 0005474  61.6122 339.5738 14.76540979840922
ORBCOMM FM39 [-]        
1 33063U 08031D   24039.42445189  .00003332  00000+0  51253-3 0  9991
2 33063  48.4394 179.0398 0006746  36.8056 323.3319 14.75622064840639
